0 CZ-4 DEB
1 35331U 99057SK  13271.09104009  .00002561  00000-0  77964-3 0  1961
2 35331 098.5017 213.3913 0131807 002.6328 043.3651 14.38000904562925
